{
"type": "FeatureCollection",
"name": "san_gabriel_valley_jurisdictions",
"crs": { "type": "name", "properties": { "name": "urn:ogc:def:crs:OGC:1.3:CRS84" } },
"features": [
{ "type": "Feature", "properties": { "jurisdiction_id": "0600884", "name": "Alhambra", "area_sq_mi": 7.6, "city_class": "Full-Service", "jurisdictional_density": 3.82 }, "geometry": { "type": "Polygon", "coordinates": [ [ [ -118.09375, 34.066666666666663 ], [ -118.09375, 34.0 ], [ -118.15, 34.0 ], [ -118.15, 34.066666666666663 ], [ -118.09375, 34.066666666666663 ] ] ] } },
{ "type": "Feature", "properties": { "jurisdiction_id": "0602252", "name": "Arcadia", "area_sq_mi": 11.1, "city_class": "Full-Service", "jurisdictional_density": 5.09 }, "geometry": { "type": "Polygon", "coordinates": [ [ [ -118.09375, 34.066666666666663 ], [ -118.0375, 34.066666666666663 ], [ -118.0375, 34.0 ], [ -118.09375, 34.0 ], [ -118.09375, 34.066666666666663 ] ] ] } },
{ "type": "Feature", "properties": { "jurisdiction_id": "0603526", "name": "Azusa", "area_sq_mi": 9.5, "city_class": "Full-Service", "jurisdictional_density": 5.09 }, "geometry": { "type": "Polygon", "coordinates": [ [ [ -118.0375, 34.066666666666663 ], [ -117.98125, 34.066666666666663 ], [ -117.98125, 34.0 ], [ -118.0375, 34.0 ], [ -118.0375, 34.066666666666663 ] ] ] } },
{ "type": "Feature", "properties": { "jurisdiction_id": "0604094", "name": "Baldwin Park", "area_sq_mi": 6.8, "city_class": "Full-Service", "jurisdictional_density": 5.09 }, "geometry": { "type": "Polygon", "coordinates": [ [ [ -117.98125, 34.066666666666663 ], [ -117.925, 34.066666666666663 ], [ -117.925, 34.0 ], [ -117.98125, 34.0 ], [ -117.98125, 34.066666666666663 ] ] ] } },
{ "type": "Feature", "properties": { "jurisdiction_id": "0616742", "name": "Covina", "area_sq_mi": 7.0, "city_class": "Full-Service", "jurisdictional_density": 5.09 }, "geometry": { "type": "Polygon", "coordinates": [ [ [ -117.925, 34.066666666666663 ], [ -117.86875, 34.066666666666663 ], [ -117.86875, 34.0 ], [ -117.925, 34.0 ], [ -117.925, 34.066666666666663 ] ] ] } },
{ "type": "Feature", "properties": { "jurisdiction_id": "0619192", "name": "Diamond Bar", "area_sq_mi": 14.9, "city_class": "Full-Service", "jurisdictional_density": 5.09 }, "geometry": { "type": "Polygon", "coordinates": [ [ [ -117.86875, 34.066666666666663 ], [ -117.8125, 34.066666666666663 ], [ -117.8125, 34.0 ], [ -117.86875, 34.0 ], [ -117.86875, 34.066666666666663 ] ] ] } },
{ "type": "Feature", "properties": { "jurisdiction_id": "0619766", "name": "Duarte", "area_sq_mi": 6.6, "city_class": "Full-Service", "jurisdictional_density": 5.09 }, "geometry": { "type": "Polygon", "coordinates": [ [ [ -117.8125, 34.066666666666663 ], [ -117.75625, 34.066666666666663 ], [ -117.75625, 34.0 ], [ -117.8125, 34.0 ], [ -117.8125, 34.066666666666663 ] ] ] } },
{ "type": "Feature", "properties": { "jurisdiction_id": "0622230", "name": "El Monte", "area_sq_mi": 9.6, "city_class": "Full-Service", "jurisdictional_density": 3.82 }, "geometry": { "type": "Polygon", "coordinates": [ [ [ -117.75625, 34.066666666666663 ], [ -117.7, 34.066666666666663 ], [ -117.7, 34.0 ], [ -117.75625, 34.0 ], [ -117.75625, 34.066666666666663 ] ] ] } },
{ "type": "Feature", "properties": { "jurisdiction_id": "0630378", "name": "Glendora", "area_sq_mi": 19.3, "city_class": "Full-Service", "jurisdictional_density": 5.09 }, "geometry": { "type": "Polygon", "coordinates": [ [ [ -118.09375, 34.13333333333334 ], [ -118.09375, 34.066666666666663 ], [ -118.15, 34.066666666666663 ], [ -118.15, 34.13333333333334 ], [ -118.09375, 34.13333333333334 ] ] ] } },
{ "type": "Feature", "properties": { "jurisdiction_id": "0636028", "name": "Industry", "area_sq_mi": 12.0, "city_class": "Contract", "jurisdictional_density": 6.37 }, "geometry": { "type": "Polygon", "coordinates": [ [ [ -118.09375, 34.13333333333334 ], [ -118.0375, 34.13333333333334 ], [ -118.0375, 34.066666666666663 ], [ -118.09375, 34.066666666666663 ], [ -118.09375, 34.13333333333334 ] ] ] } },
{ "type": "Feature", "properties": { "jurisdiction_id": "0636392", "name": "Irwindale", "area_sq_mi": 6.1, "city_class": "Contract", "jurisdictional_density": 6.37 }, "geometry": { "type": "Polygon", "coordinates": [ [ [ -118.0375, 34.13333333333334 ], [ -117.98125, 34.13333333333334 ], [ -117.98125, 34.066666666666663 ], [ -118.0375, 34.066666666666663 ], [ -118.0375, 34.13333333333334 ] ] ] } },
{ "type": "Feature", "properties": { "jurisdiction_id": "0640004", "name": "La Puente", "area_sq_mi": 3.5, "city_class": "Contract", "jurisdictional_density": 6.37 }, "geometry": { "type": "Polygon", "coordinates": [ [ [ -117.98125, 34.13333333333334 ], [ -117.925, 34.13333333333334 ], [ -117.925, 34.066666666666663 ], [ -117.98125, 34.066666666666663 ], [ -117.98125, 34.13333333333334 ] ] ] } },
{ "type": "Feature", "properties": { "jurisdiction_id": "0640032", "name": "La Verne", "area_sq_mi": 12.5, "city_class": "Full-Service", "jurisdictional_density": 6.37 }, "geometry": { "type": "Polygon", "coordinates": [ [ [ -117.925, 34.13333333333334 ], [ -117.86875, 34.13333333333334 ], [ -117.86875, 34.066666666666663 ], [ -117.925, 34.066666666666663 ], [ -117.925, 34.13333333333334 ] ] ] } },
{ "type": "Feature", "properties": { "jurisdiction_id": "0648788", "name": "Monrovia", "area_sq_mi": 13.7, "city_class": "Full-Service", "jurisdictional_density": 6.37 }, "geometry": { "type": "Polygon", "coordinates": [ [ [ -117.86875, 34.13333333333334 ], [ -117.8125, 34.13333333333334 ], [ -117.8125, 34.066666666666663 ], [ -117.86875, 34.066666666666663 ], [ -117.86875, 34.13333333333334 ] ] ] } },
{ "type": "Feature", "properties": { "jurisdiction_id": "0648860", "name": "Montebello", "area_sq_mi": 8.3, "city_class": "Full-Service", "jurisdictional_density": 6.37 }, "geometry": { "type": "Polygon", "coordinates": [ [ [ -117.8125, 34.13333333333334 ], [ -117.75625, 34.13333333333334 ], [ -117.75625, 34.066666666666663 ], [ -117.8125, 34.066666666666663 ], [ -117.8125, 34.13333333333334 ] ] ] } },
{ "type": "Feature", "properties": { "jurisdiction_id": "0648972", "name": "Monterey Park", "area_sq_mi": 7.7, "city_class": "Full-Service", "jurisdictional_density": 5.09 }, "geometry": { "type": "Polygon", "coordinates": [ [ [ -117.75625, 34.066666666666663 ], [ -117.75625, 34.13333333333334 ], [ -117.7, 34.13333333333334 ], [ -117.7, 34.066666666666663 ], [ -117.75625, 34.066666666666663 ] ] ] } },
{ "type": "Feature", "properties": { "jurisdiction_id": "0658072", "name": "Pomona", "area_sq_mi": 22.9, "city_class": "Full-Service", "jurisdictional_density": 3.82 }, "geometry": { "type": "Polygon", "coordinates": [ [ [ -118.09375, 34.13333333333334 ], [ -118.15, 34.13333333333334 ], [ -118.15, 34.2 ], [ -118.09375, 34.2 ], [ -118.09375, 34.13333333333334 ] ] ] } },
{ "type": "Feature", "properties": { "jurisdiction_id": "0663218", "name": "Rosemead", "area_sq_mi": 5.2, "city_class": "Full-Service", "jurisdictional_density": 5.09 }, "geometry": { "type": "Polygon", "coordinates": [ [ [ -118.0375, 34.13333333333334 ], [ -118.09375, 34.13333333333334 ], [ -118.09375, 34.2 ], [ -118.0375, 34.2 ], [ -118.0375, 34.13333333333334 ] ] ] } },
{ "type": "Feature", "properties": { "jurisdiction_id": "0664882", "name": "San Dimas", "area_sq_mi": 15.4, "city_class": "Full-Service", "jurisdictional_density": 5.09 }, "geometry": { "type": "Polygon", "coordinates": [ [ [ -117.98125, 34.13333333333334 ], [ -118.0375, 34.13333333333334 ], [ -118.0375, 34.2 ], [ -117.98125, 34.2 ], [ -117.98125, 34.13333333333334 ] ] ] } },
{ "type": "Feature", "properties": { "jurisdiction_id": "0665028", "name": "San Gabriel", "area_sq_mi": 4.1, "city_class": "Full-Service", "jurisdictional_density": 5.09 }, "geometry": { "type": "Polygon", "coordinates": [ [ [ -117.925, 34.13333333333334 ], [ -117.98125, 34.13333333333334 ], [ -117.98125, 34.2 ], [ -117.925, 34.2 ], [ -117.925, 34.13333333333334 ] ] ] } },
{ "type": "Feature", "properties": { "jurisdiction_id": "0672016", "name": "South El Monte", "area_sq_mi": 3.0, "city_class": "Contract", "jurisdictional_density": 5.09 }, "geometry": { "type": "Polygon", "coordinates": [ [ [ -117.86875, 34.13333333333334 ], [ -117.925, 34.13333333333334 ], [ -117.925, 34.2 ], [ -117.86875, 34.2 ], [ -117.86875, 34.13333333333334 ] ] ] } },
{ "type": "Feature", "properties": { "jurisdiction_id": "0678218", "name": "Temple City", "area_sq_mi": 3.9, "city_class": "Full-Service", "jurisdictional_density": 5.09 }, "geometry": { "type": "Polygon", "coordinates": [ [ [ -117.8125, 34.13333333333334 ], [ -117.86875, 34.13333333333334 ], [ -117.86875, 34.2 ], [ -117.8125, 34.2 ], [ -117.8125, 34.13333333333334 ] ] ] } },
{ "type": "Feature", "properties": { "jurisdiction_id": "0683668", "name": "West Covina", "area_sq_mi": 16.0, "city_class": "Full-Service", "jurisdictional_density": 5.09 }, "geometry": { "type": "Polygon", "coordinates": [ [ [ -117.75625, 34.13333333333334 ], [ -117.8125, 34.13333333333334 ], [ -117.8125, 34.2 ], [ -117.75625, 34.2 ], [ -117.75625, 34.13333333333334 ] ] ] } },
{ "type": "Feature", "properties": { "jurisdiction_id": "0684200", "name": "Whittier", "area_sq_mi": 14.8, "city_class": "Full-Service", "jurisdictional_density": 3.82 }, "geometry": { "type": "Polygon", "coordinates": [ [ [ -117.75625, 34.13333333333334 ], [ -117.75625, 34.2 ], [ -117.7, 34.2 ], [ -117.7, 34.13333333333334 ], [ -117.75625, 34.13333333333334 ] ] ] } }
]
}
