{
"type": "FeatureCollection",
"name": "san_gabriel_valley_jurisdictions",
"crs": { "type": "name", "properties": { "name": "urn:ogc:def:crs:OGC:1.3:CRS84" } },
"features": [
{ "type": "Feature", "properties": { "jurisdiction_id": "0600884", "name": "Alhambra", "area_sq_mi": 7.6, "city_class": "Full-Service", "jurisdictional_density": 3.82, "median_hh_income": 61542, "per_capita_income": 25100, "poverty_rate": 13.4, "acs_year": 2023, "source": "synthetic_quickfacts", "income_quartile": "Q1_low", "median_hh_income_z": -1.023 }, "geometry": { "type": "Polygon", "coordinates": [ [ [ -118.09375, 34.066666666666663 ], [ -118.09375, 34.0 ], [ -118.15, 34.0 ], [ -118.15, 34.066666666666663 ], [ -118.09375, 34.066666666666663 ] ] ] } },
{ "type": "Feature", "properties": { "jurisdiction_id": "0602252", "name": "Arcadia", "area_sq_mi": 11.1, "city_class": "Full-Service", "jurisdictional_density": 5.09, "median_hh_income": 96028, "per_capita_income": 44800, "poverty_rate": 7.6, "acs_year": 2023, "source": "synthetic_quickfacts", "income_quartile": "Q4_high", "median_hh_income_z": 1.326 }, "geometry": { "type": "Polygon", "coordinates": [ [ [ -118.09375, 34.066666666666663 ], [ -118.0375, 34.066666666666663 ], [ -118.0375, 34.0 ], [ -118.09375, 34.0 ], [ -118.09375, 34.066666666666663 ] ] ] } },
{ "type": "Feature", "properties": { "jurisdiction_id": "0603526", "name": "Azusa", "area_sq_mi": 9.5, "city_class": "Full-Service", "jurisdictional_density": 5.09, "median_hh_income": 67331, "per_capita_income": 22600, "poverty_rate": 13.2, "acs_year": 2023, "source": "synthetic_quickfacts", "income_quartile": "Q2_mid_low", "median_hh_income_z": -0.629 }, "geometry": { "type": "Polygon", "coordinates": [ [ [ -118.0375, 34.066666666666663 ], [ -117.98125, 34.066666666666663 ], [ -117.98125, 34.0 ], [ -118.0375, 34.0 ], [ -118.0375, 34.066666666666663 ] ] ] } },
{ "type": "Feature", "properties": { "jurisdiction_id": "0604094", "name": "Baldwin Park", "area_sq_mi": 6.8, "city_class": "Full-Service", "jurisdictional_density": 5.09, "median_hh_income": 63504, "per_capita_income": 17200, "poverty_rate": 14.9, "acs_year": 2023, "source": "synthetic_quickfacts", "income_quartile": "Q1_low", "median_hh_income_z": -0.889 }, "geometry": { "type": "Polygon", "coordinates": [ [ [ -117.98125, 34.066666666666663 ], [ -117.925, 34.066666666666663 ], [ -117.925, 34.0 ], [ -117.98125, 34.0 ], [ -117.98125, 34.066666666666663 ] ] ] } },
{ "type": "Feature", "properties": { "jurisdiction_id": "0616742", "name": "Covina", "area_sq_mi": 7.0, "city_class": "Full-Service", "jurisdictional_density": 5.09, "median_hh_income": 78902, "per_capita_income": 30500, "poverty_rate": 10.1, "acs_year": 2023, "source": "synthetic_quickfacts", "income_quartile": "Q3_mid_high", "median_hh_income_z": 0.159 }, "geometry": { "type": "Polygon", "coordinates": [ [ [ -117.925, 34.066666666666663 ], [ -117.86875, 34.066666666666663 ], [ -117.86875, 34.0 ], [ -117.925, 34.0 ], [ -117.925, 34.066666666666663 ] ] ] } },
{ "type": "Feature", "properties": { "jurisdiction_id": "0619192", "name": "Diamond Bar", "area_sq_mi": 14.9, "city_class": "Full-Service", "jurisdictional_density": 5.09, "median_hh_income": 105831, "per_capita_income": 40200, "poverty_rate": 5.4, "acs_year": 2023, "source": "synthetic_quickfacts", "income_quartile": "Q4_high", "median_hh_income_z": 1.994 }, "geometry": { "type": "Polygon", "coordinates": [ [ [ -117.86875, 34.066666666666663 ], [ -117.8125, 34.066666666666663 ], [ -117.8125, 34.0 ], [ -117.86875, 34.0 ], [ -117.86875, 34.066666666666663 ] ] ] } },
{ "type": "Feature", "properties": { "jurisdiction_id": "0619766", "name": "Duarte", "area_sq_mi": 6.6, "city_class": "Full-Service", "jurisdictional_density": 5.09, "median_hh_income": 63750, "per_capita_income": 25800, "poverty_rate": 11.8, "acs_year": 2023, "source": "synthetic_quickfacts", "income_quartile": "Q1_low", "median_hh_income_z": -0.873 }, "geometry": { "type": "Polygon", "coordinates": [ [ [ -117.8125, 34.066666666666663 ], [ -117.75625, 34.066666666666663 ], [ -117.75625, 34.0 ], [ -117.8125, 34.0 ], [ -117.8125, 34.066666666666663 ] ] ] } },
{ "type": "Feature", "properties": { "jurisdiction_id": "0622230", "name": "El Monte", "area_sq_mi": 9.6, "city_class": "Full-Service", "jurisdictional_density": 3.82, "median_hh_income": 55017, "per_capita_income": 16900, "poverty_rate": 19.3, "acs_year": 2023, "source": "synthetic_quickfacts", "income_quartile": "Q1_low", "median_hh_income_z": -1.468 }, "geometry": { "type": "Polygon", "coordinates": [ [ [ -117.75625, 34.066666666666663 ], [ -117.7, 34.066666666666663 ], [ -117.7, 34.0 ], [ -117.75625, 34.0 ], [ -117.75625, 34.066666666666663 ] ] ] } },
{ "type": "Feature", "properties": { "jurisdiction_id": "0630378", "name": "Glendora", "area_sq_mi": 19.3, "city_class": "Full-Service", "jurisdictional_density": 5.09, "median_hh_income": 94417, "per_capita_income": 38700, "poverty_rate": 5.9, "acs_year": 2023, "source": "synthetic_quickfacts", "income_quartile": "Q4_high", "median_hh_income_z": 1.216 }, "geometry": { "type": "Polygon", "coordinates": [ [ [ -118.09375, 34.13333333333334 ], [ -118.09375, 34.066666666666663 ], [ -118.15, 34.066666666666663 ], [ -118.15, 34.13333333333334 ], [ -118.09375, 34.13333333333334 ] ] ] } },
{ "type": "Feature", "properties": { "jurisdiction_id": "0636028", "name": "Industry", "area_sq_mi": 12.0, "city_class": "Contract", "jurisdictional_density": 6.37, "median_hh_income": 85000, "per_capita_income": 42000, "poverty_rate": 4.0, "acs_year": 2023, "source": "synthetic_quickfacts", "income_quartile": "Q3_mid_high", "median_hh_income_z": 0.575 }, "geometry": { "type": "Polygon", "coordinates": [ [ [ -118.09375, 34.13333333333334 ], [ -118.0375, 34.13333333333334 ], [ -118.0375, 34.066666666666663 ], [ -118.09375, 34.066666666666663 ], [ -118.09375, 34.13333333333334 ] ] ] } },
{ "type": "Feature", "properties": { "jurisdiction_id": "0636392", "name": "Irwindale", "area_sq_mi": 6.1, "city_class": "Contract", "jurisdictional_density": 6.37, "median_hh_income": 72500, "per_capita_income": 35000, "poverty_rate": 6.5, "acs_year": 2023, "source": "synthetic_quickfacts", "income_quartile": "Q2_mid_low", "median_hh_income_z": -0.277 }, "geometry": { "type": "Polygon", "coordinates": [ [ [ -118.0375, 34.13333333333334 ], [ -117.98125, 34.13333333333334 ], [ -117.98125, 34.066666666666663 ], [ -118.0375, 34.066666666666663 ], [ -118.0375, 34.13333333333334 ] ] ] } },
{ "type": "Feature", "properties": { "jurisdiction_id": "0640004", "name": "La Puente", "area_sq_mi": 3.5, "city_class": "Contract", "jurisdictional_density": 6.37, "median_hh_income": 64531, "per_capita_income": 18400, "poverty_rate": 14.6, "acs_year": 2023, "source": "synthetic_quickfacts", "income_quartile": "Q2_mid_low", "median_hh_income_z": -0.819 }, "geometry": { "type": "Polygon", "coordinates": [ [ [ -117.98125, 34.13333333333334 ], [ -117.925, 34.13333333333334 ], [ -117.925, 34.066666666666663 ], [ -117.98125, 34.066666666666663 ], [ -117.98125, 34.13333333333334 ] ] ] } },
{ "type": "Feature", "properties": { "jurisdiction_id": "0640032", "name": "La Verne", "area_sq_mi": 12.5, "city_class": "Full-Service", "jurisdictional_density": 6.37, "median_hh_income": 100625, "per_capita_income": 41500, "poverty_rate": 5.1, "acs_year": 2023, "source": "synthetic_quickfacts", "income_quartile": "Q4_high", "median_hh_income_z": 1.639 }, "geometry": { "type": "Polygon", "coordinates": [ [ [ -117.925, 34.13333333333334 ], [ -117.86875, 34.13333333333334 ], [ -117.86875, 34.066666666666663 ], [ -117.925, 34.066666666666663 ], [ -117.925, 34.13333333333334 ] ] ] } },
{ "type": "Feature", "properties": { "jurisdiction_id": "0648788", "name": "Monrovia", "area_sq_mi": 13.7, "city_class": "Full-Service", "jurisdictional_density": 6.37, "median_hh_income": 82411, "per_capita_income": 34600, "poverty_rate": 8.7, "acs_year": 2023, "source": "synthetic_quickfacts", "income_quartile": "Q3_mid_high", "median_hh_income_z": 0.398 }, "geometry": { "type": "Polygon", "coordinates": [ [ [ -117.86875, 34.13333333333334 ], [ -117.8125, 34.13333333333334 ], [ -117.8125, 34.066666666666663 ], [ -117.86875, 34.066666666666663 ], [ -117.86875, 34.13333333333334 ] ] ] } },
{ "type": "Feature", "properties": { "jurisdiction_id": "0648860", "name": "Montebello", "area_sq_mi": 8.3, "city_class": "Full-Service", "jurisdictional_density": 6.37, "median_hh_income": 64233, "per_capita_income": 22300, "poverty_rate": 13.1, "acs_year": 2023, "source": "synthetic_quickfacts", "income_quartile": "Q2_mid_low", "median_hh_income_z": -0.84 }, "geometry": { "type": "Polygon", "coordinates": [ [ [ -117.8125, 34.13333333333334 ], [ -117.75625, 34.13333333333334 ], [ -117.75625, 34.066666666666663 ], [ -117.8125, 34.066666666666663 ], [ -117.8125, 34.13333333333334 ] ] ] } },
{ "type": "Feature", "properties": { "jurisdiction_id": "0648972", "name": "Monterey Park", "area_sq_mi": 7.7, "city_class": "Full-Service", "jurisdictional_density": 5.09, "median_hh_income": 71202, "per_capita_income": 27800, "poverty_rate": 10.3, "acs_year": 2023, "source": "synthetic_quickfacts", "income_quartile": "Q2_mid_low", "median_hh_income_z": -0.365 }, "geometry": { "type": "Polygon", "coordinates": [ [ [ -117.75625, 34.066666666666663 ], [ -117.75625, 34.13333333333334 ], [ -117.7, 34.13333333333334 ], [ -117.7, 34.066666666666663 ], [ -117.75625, 34.066666666666663 ] ] ] } },
{ "type": "Feature", "properties": { "jurisdiction_id": "0658072", "name": "Pomona", "area_sq_mi": 22.9, "city_class": "Full-Service", "jurisdictional_density": 3.82, "median_hh_income": 66129, "per_capita_income": 20300, "poverty_rate": 16.8, "acs_year": 2023, "source": "synthetic_quickfacts", "income_quartile": "Q2_mid_low", "median_hh_income_z": -0.711 }, "geometry": { "type": "Polygon", "coordinates": [ [ [ -118.09375, 34.13333333333334 ], [ -118.15, 34.13333333333334 ], [ -118.15, 34.2 ], [ -118.09375, 34.2 ], [ -118.09375, 34.13333333333334 ] ] ] } },
{ "type": "Feature", "properties": { "jurisdiction_id": "0663218", "name": "Rosemead", "area_sq_mi": 5.2, "city_class": "Full-Service", "jurisdictional_density": 5.09, "median_hh_income": 61875, "per_capita_income": 20100, "poverty_rate": 14.2, "acs_year": 2023, "source": "synthetic_quickfacts", "income_quartile": "Q1_low", "median_hh_income_z": -1.0 }, "geometry": { "type": "Polygon", "coordinates": [ [ [ -118.0375, 34.13333333333334 ], [ -118.09375, 34.13333333333334 ], [ -118.09375, 34.2 ], [ -118.0375, 34.2 ], [ -118.0375, 34.13333333333334 ] ] ] } },
{ "type": "Feature", "properties": { "jurisdiction_id": "0664882", "name": "San Dimas", "area_sq_mi": 15.4, "city_class": "Full-Service", "jurisdictional_density": 5.09, "median_hh_income": 97553, "per_capita_income": 40900, "poverty_rate": 5.8, "acs_year": 2023, "source": "synthetic_quickfacts", "income_quartile": "Q4_high", "median_hh_income_z": 1.43 }, "geometry": { "type": "Polygon", "coordinates": [ [ [ -117.98125, 34.13333333333334 ], [ -118.0375, 34.13333333333334 ], [ -118.0375, 34.2 ], [ -117.98125, 34.2 ], [ -117.98125, 34.13333333333334 ] ] ] } },
{ "type": "Feature", "properties": { "jurisdiction_id": "0665028", "name": "San Gabriel", "area_sq_mi": 4.1, "city_class": "Full-Service", "jurisdictional_density": 5.09, "median_hh_income": 72614, "per_capita_income": 27500, "poverty_rate": 10.9, "acs_year": 2023, "source": "synthetic_quickfacts", "income_quartile": "Q3_mid_high", "median_hh_income_z": -0.269 }, "geometry": { "type": "Polygon", "coordinates": [ [ [ -117.925, 34.13333333333334 ], [ -117.98125, 34.13333333333334 ], [ -117.98125, 34.2 ], [ -117.925, 34.2 ], [ -117.925, 34.13333333333334 ] ] ] } },
{ "type": "Feature", "properties": { "jurisdiction_id": "0672016", "name": "South El Monte", "area_sq_mi": 3.0, "city_class": "Contract", "jurisdictional_density": 5.09, "median_hh_income": 59375, "per_capita_income": 17800, "poverty_rate": 17.3, "acs_year": 2023, "source": "synthetic_quickfacts", "income_quartile": "Q1_low", "median_hh_income_z": -1.171 }, "geometry": { "type": "Polygon", "coordinates": [ [ [ -117.86875, 34.13333333333334 ], [ -117.925, 34.13333333333334 ], [ -117.925, 34.2 ], [ -117.86875, 34.2 ], [ -117.86875, 34.13333333333334 ] ] ] } },
{ "type": "Feature", "properties": { "jurisdiction_id": "0678218", "name": "Temple City", "area_sq_mi": 3.9, "city_class": "Full-Service", "jurisdictional_density": 5.09, "median_hh_income": 85417, "per_capita_income": 33500, "poverty_rate": 7.2, "acs_year": 2023, "source": "synthetic_quickfacts", "income_quartile": "Q4_high", "median_hh_income_z": 0.603 }, "geometry": { "type": "Polygon", "coordinates": [ [ [ -117.8125, 34.13333333333334 ], [ -117.86875, 34.13333333333334 ], [ -117.86875, 34.2 ], [ -117.8125, 34.2 ], [ -117.8125, 34.13333333333334 ] ] ] } },
{ "type": "Feature", "properties": { "jurisdiction_id": "0683668", "name": "West Covina", "area_sq_mi": 16.0, "city_class": "Full-Service", "jurisdictional_density": 5.09, "median_hh_income": 83269, "per_capita_income": 29300, "poverty_rate": 9.4, "acs_year": 2023, "source": "synthetic_quickfacts", "income_quartile": "Q3_mid_high", "median_hh_income_z": 0.457 }, "geometry": { "type": "Polygon", "coordinates": [ [ [ -117.75625, 34.13333333333334 ], [ -117.8125, 34.13333333333334 ], [ -117.8125, 34.2 ], [ -117.75625, 34.2 ], [ -117.75625, 34.13333333333334 ] ] ] } },
{ "type": "Feature", "properties": { "jurisdiction_id": "0684200", "name": "Whittier", "area_sq_mi": 14.8, "city_class": "Full-Service", "jurisdictional_density": 3.82, "median_hh_income": 84432, "per_capita_income": 31900, "poverty_rate": 8.6, "acs_year": 2023, "source": "synthetic_quickfacts", "income_quartile": "Q3_mid_high", "median_hh_income_z": 0.536 }, "geometry": { "type": "Polygon", "coordinates": [ [ [ -117.75625, 34.13333333333334 ], [ -117.75625, 34.2 ], [ -117.7, 34.2 ], [ -117.7, 34.13333333333334 ], [ -117.75625, 34.13333333333334 ] ] ] } }
]
}
