{
"type": "FeatureCollection",
"name": "lisa_clusters_pci_score",
"crs": { "type": "name", "properties": { "name": "urn:ogc:def:crs:OGC:1.3:CRS84" } },
"features": [
{ "type": "Feature", "properties": { "name": "Alhambra", "lisa_pci_score": "NS", "lisa_pci_score_Ii": -0.028, "lisa_pci_score_p": 0.123, "pci_score": 55.5, "fragmentation_idx": -1.5982805503338695, "median_hh_income": 61542 }, "geometry": { "type": "Polygon", "coordinates": [ [ [ -118.09375, 34.066666666666663 ], [ -118.09375, 34.0 ], [ -118.15, 34.0 ], [ -118.15, 34.066666666666663 ], [ -118.09375, 34.066666666666663 ] ] ] } },
{ "type": "Feature", "properties": { "name": "Arcadia", "lisa_pci_score": "NS", "lisa_pci_score_Ii": 0.1396, "lisa_pci_score_p": 0.205, "pci_score": 60.3, "fragmentation_idx": -0.10930693587691631, "median_hh_income": 96028 }, "geometry": { "type": "Polygon", "coordinates": [ [ [ -118.09375, 34.066666666666663 ], [ -118.0375, 34.066666666666663 ], [ -118.0375, 34.0 ], [ -118.09375, 34.0 ], [ -118.09375, 34.066666666666663 ] ] ] } },
{ "type": "Feature", "properties": { "name": "Azusa", "lisa_pci_score": "NS", "lisa_pci_score_Ii": 0.0238, "lisa_pci_score_p": 0.31, "pci_score": 54.8, "fragmentation_idx": -0.10930693587691225, "median_hh_income": 67331 }, "geometry": { "type": "Polygon", "coordinates": [ [ [ -118.0375, 34.066666666666663 ], [ -117.98125, 34.066666666666663 ], [ -117.98125, 34.0 ], [ -118.0375, 34.0 ], [ -118.0375, 34.066666666666663 ] ] ] } },
{ "type": "Feature", "properties": { "name": "Baldwin Park", "lisa_pci_score": "NS", "lisa_pci_score_Ii": 0.1009, "lisa_pci_score_p": 0.262, "pci_score": 52.2, "fragmentation_idx": -0.10930693587694347, "median_hh_income": 63504 }, "geometry": { "type": "Polygon", "coordinates": [ [ [ -117.98125, 34.066666666666663 ], [ -117.925, 34.066666666666663 ], [ -117.925, 34.0 ], [ -117.98125, 34.0 ], [ -117.98125, 34.066666666666663 ] ] ] } },
{ "type": "Feature", "properties": { "name": "Covina", "lisa_pci_score": "NS", "lisa_pci_score_Ii": -0.2108, "lisa_pci_score_p": 0.34, "pci_score": 46.1, "fragmentation_idx": -0.10930693587674287, "median_hh_income": 78902 }, "geometry": { "type": "Polygon", "coordinates": [ [ [ -117.925, 34.066666666666663 ], [ -117.86875, 34.066666666666663 ], [ -117.86875, 34.0 ], [ -117.925, 34.0 ], [ -117.925, 34.066666666666663 ] ] ] } },
{ "type": "Feature", "properties": { "name": "Diamond Bar", "lisa_pci_score": "NS", "lisa_pci_score_Ii": -0.2202, "lisa_pci_score_p": 0.334, "pci_score": 65.3, "fragmentation_idx": -0.10930693587690953, "median_hh_income": 105831 }, "geometry": { "type": "Polygon", "coordinates": [ [ [ -117.86875, 34.066666666666663 ], [ -117.8125, 34.066666666666663 ], [ -117.8125, 34.0 ], [ -117.86875, 34.0 ], [ -117.86875, 34.066666666666663 ] ] ] } },
{ "type": "Feature", "properties": { "name": "Duarte", "lisa_pci_score": "NS", "lisa_pci_score_Ii": 0.1309, "lisa_pci_score_p": 0.259, "pci_score": 50.8, "fragmentation_idx": -0.10930693587712709, "median_hh_income": 63750 }, "geometry": { "type": "Polygon", "coordinates": [ [ [ -117.8125, 34.066666666666663 ], [ -117.75625, 34.066666666666663 ], [ -117.75625, 34.0 ], [ -117.8125, 34.0 ], [ -117.8125, 34.066666666666663 ] ] ] } },
{ "type": "Feature", "properties": { "name": "El Monte", "lisa_pci_score": "LL", "lisa_pci_score_Ii": 0.8594, "lisa_pci_score_p": 0.072, "pci_score": 44.8, "fragmentation_idx": -1.598280550333862, "median_hh_income": 55017 }, "geometry": { "type": "Polygon", "coordinates": [ [ [ -117.75625, 34.066666666666663 ], [ -117.7, 34.066666666666663 ], [ -117.7, 34.0 ], [ -117.75625, 34.0 ], [ -117.75625, 34.066666666666663 ] ] ] } },
{ "type": "Feature", "properties": { "name": "Glendora", "lisa_pci_score": "NS", "lisa_pci_score_Ii": -0.2761, "lisa_pci_score_p": 0.406, "pci_score": 70.4, "fragmentation_idx": -0.37657958094563382, "median_hh_income": 94417 }, "geometry": { "type": "Polygon", "coordinates": [ [ [ -118.09375, 34.133333333333326 ], [ -118.09375, 34.066666666666663 ], [ -118.15, 34.066666666666663 ], [ -118.15, 34.133333333333326 ], [ -118.09375, 34.133333333333326 ] ] ] } },
{ "type": "Feature", "properties": { "name": "Industry", "lisa_pci_score": "NS", "lisa_pci_score_Ii": -0.0104, "lisa_pci_score_p": 0.13, "pci_score": 55.6, "fragmentation_idx": 1.4082704326517697, "median_hh_income": 85000 }, "geometry": { "type": "Polygon", "coordinates": [ [ [ -118.09375, 34.133333333333326 ], [ -118.0375, 34.13333333333334 ], [ -118.0375, 34.066666666666663 ], [ -118.09375, 34.066666666666663 ], [ -118.09375, 34.133333333333326 ] ] ] } },
{ "type": "Feature", "properties": { "name": "Irwindale", "lisa_pci_score": "NS", "lisa_pci_score_Ii": -0.0156, "lisa_pci_score_p": 0.326, "pci_score": 56.9, "fragmentation_idx": 1.4082704326517697, "median_hh_income": 72500 }, "geometry": { "type": "Polygon", "coordinates": [ [ [ -118.0375, 34.13333333333334 ], [ -117.98125, 34.13333333333334 ], [ -117.98125, 34.066666666666663 ], [ -118.0375, 34.066666666666663 ], [ -118.0375, 34.13333333333334 ] ] ] } },
{ "type": "Feature", "properties": { "name": "La Puente", "lisa_pci_score": "NS", "lisa_pci_score_Ii": 0.0633, "lisa_pci_score_p": 0.378, "pci_score": 45.0, "fragmentation_idx": 1.4082704326517697, "median_hh_income": 64531 }, "geometry": { "type": "Polygon", "coordinates": [ [ [ -117.98125, 34.13333333333334 ], [ -117.925, 34.13333333333334 ], [ -117.925, 34.066666666666663 ], [ -117.98125, 34.066666666666663 ], [ -117.98125, 34.13333333333334 ] ] ] } },
{ "type": "Feature", "properties": { "name": "La Verne", "lisa_pci_score": "NS", "lisa_pci_score_Ii": -0.3327, "lisa_pci_score_p": 0.161, "pci_score": 64.8, "fragmentation_idx": 1.4082704326517697, "median_hh_income": 100625 }, "geometry": { "type": "Polygon", "coordinates": [ [ [ -117.925, 34.13333333333334 ], [ -117.86875, 34.133333333333304 ], [ -117.86875, 34.066666666666663 ], [ -117.925, 34.066666666666663 ], [ -117.925, 34.13333333333334 ] ] ] } },
{ "type": "Feature", "properties": { "name": "Monrovia", "lisa_pci_score": "NS", "lisa_pci_score_Ii": -0.0608, "lisa_pci_score_p": 0.404, "pci_score": 61.5, "fragmentation_idx": 1.4082704326517694, "median_hh_income": 82411 }, "geometry": { "type": "Polygon", "coordinates": [ [ [ -117.86875, 34.133333333333304 ], [ -117.8125, 34.133333333333304 ], [ -117.8125, 34.066666666666663 ], [ -117.86875, 34.066666666666663 ], [ -117.86875, 34.133333333333304 ] ] ] } },
{ "type": "Feature", "properties": { "name": "Montebello", "lisa_pci_score": "NS", "lisa_pci_score_Ii": -0.2604, "lisa_pci_score_p": 0.232, "pci_score": 46.1, "fragmentation_idx": 1.4082704326517697, "median_hh_income": 64233 }, "geometry": { "type": "Polygon", "coordinates": [ [ [ -117.8125, 34.133333333333304 ], [ -117.75625, 34.13333333333334 ], [ -117.75625, 34.066666666666663 ], [ -117.8125, 34.066666666666663 ], [ -117.8125, 34.133333333333304 ] ] ] } },
{ "type": "Feature", "properties": { "name": "Monterey Park", "lisa_pci_score": "NS", "lisa_pci_score_Ii": 0.0275, "lisa_pci_score_p": 0.427, "pci_score": 50.6, "fragmentation_idx": -0.37657958094577404, "median_hh_income": 71202 }, "geometry": { "type": "Polygon", "coordinates": [ [ [ -117.75625, 34.066666666666663 ], [ -117.75625, 34.13333333333334 ], [ -117.7, 34.13333333333334 ], [ -117.7, 34.066666666666663 ], [ -117.75625, 34.066666666666663 ] ] ] } },
{ "type": "Feature", "properties": { "name": "Pomona", "lisa_pci_score": "NS", "lisa_pci_score_Ii": -0.0026, "lisa_pci_score_p": 0.5, "pci_score": 58.4, "fragmentation_idx": -1.5977476232094601, "median_hh_income": 66129 }, "geometry": { "type": "Polygon", "coordinates": [ [ [ -118.09375, 34.133333333333326 ], [ -118.15, 34.133333333333326 ], [ -118.15, 34.2 ], [ -118.09375, 34.2 ], [ -118.09375, 34.133333333333326 ] ] ] } },
{ "type": "Feature", "properties": { "name": "Rosemead", "lisa_pci_score": "LH", "lisa_pci_score_Ii": -1.2068, "lisa_pci_score_p": 0.035, "pci_score": 41.4, "fragmentation_idx": -0.10809424527846562, "median_hh_income": 61875 }, "geometry": { "type": "Polygon", "coordinates": [ [ [ -118.0375, 34.13333333333334 ], [ -118.09375, 34.133333333333326 ], [ -118.09375, 34.2 ], [ -118.0375, 34.2 ], [ -118.0375, 34.13333333333334 ] ] ] } },
{ "type": "Feature", "properties": { "name": "San Dimas", "lisa_pci_score": "HL", "lisa_pci_score_Ii": -1.1774, "lisa_pci_score_p": 0.072, "pci_score": 74.3, "fragmentation_idx": -0.10809424527849582, "median_hh_income": 97553 }, "geometry": { "type": "Polygon", "coordinates": [ [ [ -117.98125, 34.13333333333334 ], [ -118.0375, 34.13333333333334 ], [ -118.0375, 34.2 ], [ -117.98125, 34.2 ], [ -117.98125, 34.13333333333334 ] ] ] } },
{ "type": "Feature", "properties": { "name": "San Gabriel", "lisa_pci_score": "NS", "lisa_pci_score_Ii": -0.0195, "lisa_pci_score_p": 0.464, "pci_score": 52.8, "fragmentation_idx": -0.10809424527853044, "median_hh_income": 72614 }, "geometry": { "type": "Polygon", "coordinates": [ [ [ -117.925, 34.13333333333334 ], [ -117.98125, 34.13333333333334 ], [ -117.98125, 34.2 ], [ -117.925, 34.2 ], [ -117.925, 34.13333333333334 ] ] ] } },
{ "type": "Feature", "properties": { "name": "South El Monte", "lisa_pci_score": "NS", "lisa_pci_score_Ii": -0.059, "lisa_pci_score_p": 0.46, "pci_score": 41.2, "fragmentation_idx": -0.10809424527832, "median_hh_income": 59375 }, "geometry": { "type": "Polygon", "coordinates": [ [ [ -117.86875, 34.133333333333304 ], [ -117.925, 34.13333333333334 ], [ -117.925, 34.2 ], [ -117.86875, 34.2 ], [ -117.86875, 34.133333333333304 ] ] ] } },
{ "type": "Feature", "properties": { "name": "Temple City", "lisa_pci_score": "NS", "lisa_pci_score_Ii": 0.0065, "lisa_pci_score_p": 0.461, "pci_score": 57.1, "fragmentation_idx": -0.10809424527848462, "median_hh_income": 85417 }, "geometry": { "type": "Polygon", "coordinates": [ [ [ -117.8125, 34.133333333333304 ], [ -117.86875, 34.133333333333304 ], [ -117.86875, 34.2 ], [ -117.8125, 34.2 ], [ -117.8125, 34.133333333333304 ] ] ] } },
{ "type": "Feature", "properties": { "name": "West Covina", "lisa_pci_score": "NS", "lisa_pci_score_Ii": 0.0891, "lisa_pci_score_p": 0.381, "pci_score": 68.2, "fragmentation_idx": -0.10809424527865569, "median_hh_income": 83269 }, "geometry": { "type": "Polygon", "coordinates": [ [ [ -117.75625, 34.13333333333334 ], [ -117.8125, 34.133333333333304 ], [ -117.8125, 34.2 ], [ -117.75625, 34.2 ], [ -117.75625, 34.13333333333334 ] ] ] } },
{ "type": "Feature", "properties": { "name": "Whittier", "lisa_pci_score": "NS", "lisa_pci_score_Ii": -0.1216, "lisa_pci_score_p": 0.473, "pci_score": 67.3, "fragmentation_idx": -1.5977476232095162, "median_hh_income": 84432 }, "geometry": { "type": "Polygon", "coordinates": [ [ [ -117.75625, 34.13333333333334 ], [ -117.75625, 34.2 ], [ -117.7, 34.2 ], [ -117.7, 34.13333333333334 ], [ -117.75625, 34.13333333333334 ] ] ] } }
]
}
