{
"type": "FeatureCollection",
"name": "lisa_clusters_cost_per_lane_mile",
"crs": { "type": "name", "properties": { "name": "urn:ogc:def:crs:OGC:1.3:CRS84" } },
"features": [
{ "type": "Feature", "properties": { "name": "Alhambra", "lisa_cost_per_lane_mile": "NS", "lisa_cost_per_lane_mile_Ii": -0.045, "lisa_cost_per_lane_mile_p": 0.255, "cost_per_lane_mile": 75475.0, "fragmentation_idx": -1.5982805503338695, "median_hh_income": 61542 }, "geometry": { "type": "Polygon", "coordinates": [ [ [ -118.09375, 34.066666666666663 ], [ -118.09375, 34.0 ], [ -118.15, 34.0 ], [ -118.15, 34.066666666666663 ], [ -118.09375, 34.066666666666663 ] ] ] } },
{ "type": "Feature", "properties": { "name": "Arcadia", "lisa_cost_per_lane_mile": "NS", "lisa_cost_per_lane_mile_Ii": -0.242, "lisa_cost_per_lane_mile_p": 0.313, "cost_per_lane_mile": 50996.0, "fragmentation_idx": -0.10930693587691631, "median_hh_income": 96028 }, "geometry": { "type": "Polygon", "coordinates": [ [ [ -118.09375, 34.066666666666663 ], [ -118.0375, 34.066666666666663 ], [ -118.0375, 34.0 ], [ -118.09375, 34.0 ], [ -118.09375, 34.066666666666663 ] ] ] } },
{ "type": "Feature", "properties": { "name": "Azusa", "lisa_cost_per_lane_mile": "HH", "lisa_cost_per_lane_mile_Ii": 0.3414, "lisa_cost_per_lane_mile_p": 0.038, "cost_per_lane_mile": 83298.0, "fragmentation_idx": -0.10930693587691225, "median_hh_income": 67331 }, "geometry": { "type": "Polygon", "coordinates": [ [ [ -118.0375, 34.066666666666663 ], [ -117.98125, 34.066666666666663 ], [ -117.98125, 34.0 ], [ -118.0375, 34.0 ], [ -118.0375, 34.066666666666663 ] ] ] } },
{ "type": "Feature", "properties": { "name": "Baldwin Park", "lisa_cost_per_lane_mile": "NS", "lisa_cost_per_lane_mile_Ii": 0.2405, "lisa_cost_per_lane_mile_p": 0.224, "cost_per_lane_mile": 90496.0, "fragmentation_idx": -0.10930693587694347, "median_hh_income": 63504 }, "geometry": { "type": "Polygon", "coordinates": [ [ [ -117.98125, 34.066666666666663 ], [ -117.925, 34.066666666666663 ], [ -117.925, 34.0 ], [ -117.98125, 34.0 ], [ -117.98125, 34.066666666666663 ] ] ] } },
{ "type": "Feature", "properties": { "name": "Covina", "lisa_cost_per_lane_mile": "NS", "lisa_cost_per_lane_mile_Ii": -0.0519, "lisa_cost_per_lane_mile_p": 0.471, "cost_per_lane_mile": 57358.0, "fragmentation_idx": -0.10930693587674287, "median_hh_income": 78902 }, "geometry": { "type": "Polygon", "coordinates": [ [ [ -117.925, 34.066666666666663 ], [ -117.86875, 34.066666666666663 ], [ -117.86875, 34.0 ], [ -117.925, 34.0 ], [ -117.925, 34.066666666666663 ] ] ] } },
{ "type": "Feature", "properties": { "name": "Diamond Bar", "lisa_cost_per_lane_mile": "NS", "lisa_cost_per_lane_mile_Ii": -0.0347, "lisa_cost_per_lane_mile_p": 0.44, "cost_per_lane_mile": 37455.0, "fragmentation_idx": -0.10930693587690953, "median_hh_income": 105831 }, "geometry": { "type": "Polygon", "coordinates": [ [ [ -117.86875, 34.066666666666663 ], [ -117.8125, 34.066666666666663 ], [ -117.8125, 34.0 ], [ -117.86875, 34.0 ], [ -117.86875, 34.066666666666663 ] ] ] } },
{ "type": "Feature", "properties": { "name": "Duarte", "lisa_cost_per_lane_mile": "NS", "lisa_cost_per_lane_mile_Ii": 0.0179, "lisa_cost_per_lane_mile_p": 0.449, "cost_per_lane_mile": 80200.0, "fragmentation_idx": -0.10930693587712709, "median_hh_income": 63750 }, "geometry": { "type": "Polygon", "coordinates": [ [ [ -117.8125, 34.066666666666663 ], [ -117.75625, 34.066666666666663 ], [ -117.75625, 34.0 ], [ -117.8125, 34.0 ], [ -117.8125, 34.066666666666663 ] ] ] } },
{ "type": "Feature", "properties": { "name": "El Monte", "lisa_cost_per_lane_mile": "NS", "lisa_cost_per_lane_mile_Ii": 0.0663, "lisa_cost_per_lane_mile_p": 0.137, "cost_per_lane_mile": 75267.0, "fragmentation_idx": -1.598280550333862, "median_hh_income": 55017 }, "geometry": { "type": "Polygon", "coordinates": [ [ [ -117.75625, 34.066666666666663 ], [ -117.7, 34.066666666666663 ], [ -117.7, 34.0 ], [ -117.75625, 34.0 ], [ -117.75625, 34.066666666666663 ] ] ] } },
{ "type": "Feature", "properties": { "name": "Glendora", "lisa_cost_per_lane_mile": "NS", "lisa_cost_per_lane_mile_Ii": -0.2589, "lisa_cost_per_lane_mile_p": 0.358, "cost_per_lane_mile": 46033.0, "fragmentation_idx": -0.37657958094563382, "median_hh_income": 94417 }, "geometry": { "type": "Polygon", "coordinates": [ [ [ -118.09375, 34.133333333333326 ], [ -118.09375, 34.066666666666663 ], [ -118.15, 34.066666666666663 ], [ -118.15, 34.133333333333326 ], [ -118.09375, 34.133333333333326 ] ] ] } },
{ "type": "Feature", "properties": { "name": "Industry", "lisa_cost_per_lane_mile": "NS", "lisa_cost_per_lane_mile_Ii": -0.1341, "lisa_cost_per_lane_mile_p": 0.392, "cost_per_lane_mile": 95806.0, "fragmentation_idx": 1.4082704326517697, "median_hh_income": 85000 }, "geometry": { "type": "Polygon", "coordinates": [ [ [ -118.09375, 34.133333333333326 ], [ -118.0375, 34.13333333333334 ], [ -118.0375, 34.066666666666663 ], [ -118.09375, 34.066666666666663 ], [ -118.09375, 34.133333333333326 ] ] ] } },
{ "type": "Feature", "properties": { "name": "Irwindale", "lisa_cost_per_lane_mile": "HH", "lisa_cost_per_lane_mile_Ii": 0.3012, "lisa_cost_per_lane_mile_p": 0.094, "cost_per_lane_mile": 91488.0, "fragmentation_idx": 1.4082704326517697, "median_hh_income": 72500 }, "geometry": { "type": "Polygon", "coordinates": [ [ [ -118.0375, 34.13333333333334 ], [ -117.98125, 34.13333333333334 ], [ -117.98125, 34.066666666666663 ], [ -118.0375, 34.066666666666663 ], [ -118.0375, 34.13333333333334 ] ] ] } },
{ "type": "Feature", "properties": { "name": "La Puente", "lisa_cost_per_lane_mile": "NS", "lisa_cost_per_lane_mile_Ii": 0.1341, "lisa_cost_per_lane_mile_p": 0.283, "cost_per_lane_mile": 117562.0, "fragmentation_idx": 1.4082704326517697, "median_hh_income": 64531 }, "geometry": { "type": "Polygon", "coordinates": [ [ [ -117.98125, 34.13333333333334 ], [ -117.925, 34.13333333333334 ], [ -117.925, 34.066666666666663 ], [ -117.98125, 34.066666666666663 ], [ -117.98125, 34.13333333333334 ] ] ] } },
{ "type": "Feature", "properties": { "name": "La Verne", "lisa_cost_per_lane_mile": "NS", "lisa_cost_per_lane_mile_Ii": -0.2115, "lisa_cost_per_lane_mile_p": 0.315, "cost_per_lane_mile": 48719.0, "fragmentation_idx": 1.4082704326517697, "median_hh_income": 100625 }, "geometry": { "type": "Polygon", "coordinates": [ [ [ -117.925, 34.13333333333334 ], [ -117.86875, 34.133333333333304 ], [ -117.86875, 34.066666666666663 ], [ -117.925, 34.066666666666663 ], [ -117.925, 34.13333333333334 ] ] ] } },
{ "type": "Feature", "properties": { "name": "Monrovia", "lisa_cost_per_lane_mile": "NS", "lisa_cost_per_lane_mile_Ii": -0.0504, "lisa_cost_per_lane_mile_p": 0.266, "cost_per_lane_mile": 78305.0, "fragmentation_idx": 1.4082704326517694, "median_hh_income": 82411 }, "geometry": { "type": "Polygon", "coordinates": [ [ [ -117.86875, 34.133333333333304 ], [ -117.8125, 34.133333333333304 ], [ -117.8125, 34.066666666666663 ], [ -117.86875, 34.066666666666663 ], [ -117.86875, 34.133333333333304 ] ] ] } },
{ "type": "Feature", "properties": { "name": "Montebello", "lisa_cost_per_lane_mile": "HL", "lisa_cost_per_lane_mile_Ii": -0.6025, "lisa_cost_per_lane_mile_p": 0.085, "cost_per_lane_mile": 101939.0, "fragmentation_idx": 1.4082704326517697, "median_hh_income": 64233 }, "geometry": { "type": "Polygon", "coordinates": [ [ [ -117.8125, 34.133333333333304 ], [ -117.75625, 34.13333333333334 ], [ -117.75625, 34.066666666666663 ], [ -117.8125, 34.066666666666663 ], [ -117.8125, 34.133333333333304 ] ] ] } },
{ "type": "Feature", "properties": { "name": "Monterey Park", "lisa_cost_per_lane_mile": "NS", "lisa_cost_per_lane_mile_Ii": -0.0264, "lisa_cost_per_lane_mile_p": 0.387, "cost_per_lane_mile": 77196.0, "fragmentation_idx": -0.37657958094577404, "median_hh_income": 71202 }, "geometry": { "type": "Polygon", "coordinates": [ [ [ -117.75625, 34.066666666666663 ], [ -117.75625, 34.13333333333334 ], [ -117.7, 34.13333333333334 ], [ -117.7, 34.066666666666663 ], [ -117.75625, 34.066666666666663 ] ] ] } },
{ "type": "Feature", "properties": { "name": "Pomona", "lisa_cost_per_lane_mile": "NS", "lisa_cost_per_lane_mile_Ii": 0.0057, "lisa_cost_per_lane_mile_p": 0.33, "cost_per_lane_mile": 73341.0, "fragmentation_idx": -1.5977476232094601, "median_hh_income": 66129 }, "geometry": { "type": "Polygon", "coordinates": [ [ [ -118.09375, 34.133333333333326 ], [ -118.15, 34.133333333333326 ], [ -118.15, 34.2 ], [ -118.09375, 34.2 ], [ -118.09375, 34.133333333333326 ] ] ] } },
{ "type": "Feature", "properties": { "name": "Rosemead", "lisa_cost_per_lane_mile": "NS", "lisa_cost_per_lane_mile_Ii": -0.0952, "lisa_cost_per_lane_mile_p": 0.442, "cost_per_lane_mile": 92871.0, "fragmentation_idx": -0.10809424527846562, "median_hh_income": 61875 }, "geometry": { "type": "Polygon", "coordinates": [ [ [ -118.0375, 34.13333333333334 ], [ -118.09375, 34.133333333333326 ], [ -118.09375, 34.2 ], [ -118.0375, 34.2 ], [ -118.0375, 34.13333333333334 ] ] ] } },
{ "type": "Feature", "properties": { "name": "San Dimas", "lisa_cost_per_lane_mile": "LH", "lisa_cost_per_lane_mile_Ii": -1.1388, "lisa_cost_per_lane_mile_p": 0.011, "cost_per_lane_mile": 45380.0, "fragmentation_idx": -0.10809424527849582, "median_hh_income": 97553 }, "geometry": { "type": "Polygon", "coordinates": [ [ [ -117.98125, 34.13333333333334 ], [ -118.0375, 34.13333333333334 ], [ -118.0375, 34.2 ], [ -117.98125, 34.2 ], [ -117.98125, 34.13333333333334 ] ] ] } },
{ "type": "Feature", "properties": { "name": "San Gabriel", "lisa_cost_per_lane_mile": "NS", "lisa_cost_per_lane_mile_Ii": -0.0274, "lisa_cost_per_lane_mile_p": 0.167, "cost_per_lane_mile": 71292.0, "fragmentation_idx": -0.10809424527853044, "median_hh_income": 72614 }, "geometry": { "type": "Polygon", "coordinates": [ [ [ -117.925, 34.13333333333334 ], [ -117.98125, 34.13333333333334 ], [ -117.98125, 34.2 ], [ -117.925, 34.2 ], [ -117.925, 34.13333333333334 ] ] ] } },
{ "type": "Feature", "properties": { "name": "South El Monte", "lisa_cost_per_lane_mile": "NS", "lisa_cost_per_lane_mile_Ii": 0.144, "lisa_cost_per_lane_mile_p": 0.351, "cost_per_lane_mile": 106559.0, "fragmentation_idx": -0.10809424527832, "median_hh_income": 59375 }, "geometry": { "type": "Polygon", "coordinates": [ [ [ -117.86875, 34.133333333333304 ], [ -117.925, 34.13333333333334 ], [ -117.925, 34.2 ], [ -117.86875, 34.2 ], [ -117.86875, 34.133333333333304 ] ] ] } },
{ "type": "Feature", "properties": { "name": "Temple City", "lisa_cost_per_lane_mile": "NS", "lisa_cost_per_lane_mile_Ii": -0.1404, "lisa_cost_per_lane_mile_p": 0.336, "cost_per_lane_mile": 58956.0, "fragmentation_idx": -0.10809424527848462, "median_hh_income": 85417 }, "geometry": { "type": "Polygon", "coordinates": [ [ [ -117.8125, 34.133333333333304 ], [ -117.86875, 34.133333333333304 ], [ -117.86875, 34.2 ], [ -117.8125, 34.2 ], [ -117.8125, 34.133333333333304 ] ] ] } },
{ "type": "Feature", "properties": { "name": "West Covina", "lisa_cost_per_lane_mile": "NS", "lisa_cost_per_lane_mile_Ii": 0.0766, "lisa_cost_per_lane_mile_p": 0.38, "cost_per_lane_mile": 54152.0, "fragmentation_idx": -0.10809424527865569, "median_hh_income": 83269 }, "geometry": { "type": "Polygon", "coordinates": [ [ [ -117.75625, 34.13333333333334 ], [ -117.8125, 34.133333333333304 ], [ -117.8125, 34.2 ], [ -117.75625, 34.2 ], [ -117.75625, 34.13333333333334 ] ] ] } },
{ "type": "Feature", "properties": { "name": "Whittier", "lisa_cost_per_lane_mile": "NS", "lisa_cost_per_lane_mile_Ii": -0.3482, "lisa_cost_per_lane_mile_p": 0.379, "cost_per_lane_mile": 37261.0, "fragmentation_idx": -1.5977476232095162, "median_hh_income": 84432 }, "geometry": { "type": "Polygon", "coordinates": [ [ [ -117.75625, 34.13333333333334 ], [ -117.75625, 34.2 ], [ -117.7, 34.2 ], [ -117.7, 34.13333333333334 ], [ -117.75625, 34.13333333333334 ] ] ] } }
]
}
